STARLINK-6029           
1 56803U 23078AN  25228.15431337  .00001296  00000+0  11636-3 0  9995
2 56803  70.0007 142.6604 0002924 266.4425  93.6400 14.98345259122150
STARLINK-6069           
1 56804U 23078AP  25228.12488975  .00000285  00000+0  31711-4 0  9997
2 56804  70.0002 122.6904 0003092 270.5459  89.5345 14.98327068122641
STARLINK-6064           
1 56805U 23078AQ  25228.12906331  .00000404  00000+0  41640-4 0  9994
2 56805  70.0004 122.7033 0002980 269.4223  90.6594 14.98328896122648
STARLINK-6072           
1 56806U 23078AR  25228.35831284 -.00001097  00000+0 -84123-4 0  9998
2 56806  70.0003 102.0173 0002974 270.6421  89.4397 14.98334494123178
STARLINK-6073           
1 56807U 23078AS  25228.10819015  .00000135  00000+0  19132-4 0  9998
2 56807  70.0001 122.6313 0002979 269.6925  90.3893 14.98332376122643
STARLINK-6042           
1 56808U 23078AT  25228.31416765  .00000054  00000+0  12333-4 0  9993
2 56808  69.9991  72.3641 0003090 267.9518  92.1287 14.98329751123919
STARLINK-6040           
1 56809U 23078AU  25228.20021070  .00001603  00000+0  14210-3 0  9999
2 56809  70.0012 142.4192 0002501 266.6375  93.4498 14.98338556122167
STARLINK-6031           
1 56810U 23078AV  25228.15016263 -.00001015  00000+0 -77260-4 0  9997
2 56810  70.0009 142.6460 0002884 267.8616  92.2213 14.98323862122155
STARLINK-6063           
1 56811U 23078AW  25228.36248490 -.00000322  00000+0 -19192-4 0  9990
2 56811  70.0001 102.0293 0002804 272.4120  87.6718 14.98329802123177
STARLINK-6065           
1 56812U 23078AX  25228.41668981 -.00022379  00000+0 -18734-2 0  9993
2 56812  70.0011 121.9096 0003099 271.9638 265.7610 14.98337624122692
STARLINK-6056           
1 56813U 23078AY  25228.19621131 -.00000268  00000+0 -14652-4 0  9995
2 56813  70.0005 142.4052 0003059 268.4486  91.6322 14.98330830122164
STARLINK-6059           
1 56814U 23078AZ  25228.20440252  .00001911  00000+0  16793-3 0  9992
2 56814  70.0003 142.4327 0002858 271.3831  88.7000 14.98326640122165
STARLINK-6067           
1 56816U 23078BB  25228.10402091 -.00000467  00000+0 -31323-4 0  9996
2 56816  70.0002 122.6166 0002660 265.3308  94.7547 14.98327333122646
STARLINK-5982           
1 56817U 23078BC  25228.14598053 -.00000129  00000+0 -30056-5 0  9993
2 56817  70.0010 142.6304 0002847 270.2904  89.7928 14.98332998122152
STARLINK-6028           
1 56818U 23078BD  25228.19604705 -.00000373  00000+0 -23509-4 0  9996
2 56818  70.0005 142.4039 0002868 271.8522  88.2308 14.98331164122167
STARLINK-30119          
1 56823U 23079A   25227.48139461 -.00000162  00000+0  30576-5 0  9994
2 56823  43.0030 147.9949 0001045 268.0441  92.0282 15.02532573121532
STARLINK-30120          
1 56824U 23079B   25228.07634974 -.00001258  00000+0 -78070-4 0  9998
2 56824  43.0051 144.7204 0000957 268.6274  91.4459 15.02545805121638
