[{"OBJECT_NAME":"STARLINK-6029","OBJECT_ID":"2023-078AN","EPOCH":"2025-08-16T03:42:12.675168","MEAN_MOTION":14.98345259,"ECCENTRICITY":0.0002924,"INCLINATION":70.0007,"RA_OF_ASC_NODE":142.6604,"ARG_OF_PERICENTER":266.4425,"MEAN_ANOMALY":93.64,"EPHEMERIS_TYPE":0,"CLASSIFICATION_TYPE":"U","NORAD_CAT_ID":56803,"ELEMENT_SET_NO":999,"REV_AT_EPOCH":12215,"BSTAR":0.00011636,"MEAN_MOTION_DOT":1.296e-5,"MEAN_MOTION_DDOT":0},{"OBJECT_NAME":"STARLINK-6069","OBJECT_ID":"2023-078AP","EPOCH":"2025-08-16T02:59:50.474400","MEAN_MOTION":14.98327068,"ECCENTRICITY":0.0003092,"INCLINATION":70.0002,"RA_OF_ASC_NODE":122.6904,"ARG_OF_PERICENTER":270.5459,"MEAN_ANOMALY":89.5345,"EPHEMERIS_TYPE":0,"CLASSIFICATION_TYPE":"U","NORAD_CAT_ID":56804,"ELEMENT_SET_NO":999,"REV_AT_EPOCH":12264,"BSTAR":3.1711e-5,"MEAN_MOTION_DOT":2.85e-6,"MEAN_MOTION_DDOT":0},{"OBJECT_NAME":"STARLINK-6064","OBJECT_ID":"2023-078AQ","EPOCH":"2025-08-16T03:05:51.069984","MEAN_MOTION":14.98328896,"ECCENTRICITY":0.000298,"INCLINATION":70.0004,"RA_OF_ASC_NODE":122.7033,"ARG_OF_PERICENTER":269.4223,"MEAN_ANOMALY":90.6594,"EPHEMERIS_TYPE":0,"CLASSIFICATION_TYPE":"U","NORAD_CAT_ID":56805,"ELEMENT_SET_NO":999,"REV_AT_EPOCH":12264,"BSTAR":4.164e-5,"MEAN_MOTION_DOT":4.04e-6,"MEAN_MOTION_DDOT":0},{"OBJECT_NAME":"STARLINK-6072","OBJECT_ID":"2023-078AR","EPOCH":"2025-08-16T08:35:58.229376","MEAN_MOTION":14.98334494,"ECCENTRICITY":0.0002974,"INCLINATION":70.0003,"RA_OF_ASC_NODE":102.0173,"ARG_OF_PERICENTER":270.6421,"MEAN_ANOMALY":89.4397,"EPHEMERIS_TYPE":0,"CLASSIFICATION_TYPE":"U","NORAD_CAT_ID":56806,"ELEMENT_SET_NO":999,"REV_AT_EPOCH":12317,"BSTAR":-8.4123e-5,"MEAN_MOTION_DOT":-1.097e-5,"MEAN_MOTION_DDOT":0},{"OBJECT_NAME":"STARLINK-6073","OBJECT_ID":"2023-078AS","EPOCH":"2025-08-16T02:35:47.628960","MEAN_MOTION":14.98332376,"ECCENTRICITY":0.0002979,"INCLINATION":70.0001,"RA_OF_ASC_NODE":122.6313,"ARG_OF_PERICENTER":269.6925,"MEAN_ANOMALY":90.3893,"EPHEMERIS_TYPE":0,"CLASSIFICATION_TYPE":"U","NORAD_CAT_ID":56807,"ELEMENT_SET_NO":999,"REV_AT_EPOCH":12264,"BSTAR":1.9132e-5,"MEAN_MOTION_DOT":1.35e-6,"MEAN_MOTION_DDOT":0},{"OBJECT_NAME":"STARLINK-6042","OBJECT_ID":"2023-078AT","EPOCH":"2025-08-16T07:32:24.084960","MEAN_MOTION":14.98329751,"ECCENTRICITY":0.000309,"INCLINATION":69.9991,"RA_OF_ASC_NODE":72.3641,"ARG_OF_PERICENTER":267.9518,"MEAN_ANOMALY":92.1287,"EPHEMERIS_TYPE":0,"CLASSIFICATION_TYPE":"U","NORAD_CAT_ID":56808,"ELEMENT_SET_NO":999,"REV_AT_EPOCH":12391,"BSTAR":1.2333e-5,"MEAN_MOTION_DOT":5.4e-7,"MEAN_MOTION_DDOT":0},{"OBJECT_NAME":"STARLINK-6040","OBJECT_ID":"2023-078AU","EPOCH":"2025-08-16T04:48:18.204480","MEAN_MOTION":14.98338556,"ECCENTRICITY":0.0002501,"INCLINATION":70.0012,"RA_OF_ASC_NODE":142.4192,"ARG_OF_PERICENTER":266.6375,"MEAN_ANOMALY":93.4498,"EPHEMERIS_TYPE":0,"CLASSIFICATION_TYPE":"U","NORAD_CAT_ID":56809,"ELEMENT_SET_NO":999,"REV_AT_EPOCH":12216,"BSTAR":0.0001421,"MEAN_MOTION_DOT":1.603e-5,"MEAN_MOTION_DDOT":0},{"OBJECT_NAME":"STARLINK-6031","OBJECT_ID":"2023-078AV","EPOCH":"2025-08-16T03:36:14.051232","MEAN_MOTION":14.98323862,"ECCENTRICITY":0.0002884,"INCLINATION":70.0009,"RA_OF_ASC_NODE":142.646,"ARG_OF_PERICENTER":267.8616,"MEAN_ANOMALY":92.2213,"EPHEMERIS_TYPE":0,"CLASSIFICATION_TYPE":"U","NORAD_CAT_ID":56810,"ELEMENT_SET_NO":999,"REV_AT_EPOCH":12215,"BSTAR":-7.726e-5,"MEAN_MOTION_DOT":-1.015e-5,"MEAN_MOTION_DDOT":0},{"OBJECT_NAME":"STARLINK-6063","OBJECT_ID":"2023-078AW","EPOCH":"2025-08-16T08:41:58.695360","MEAN_MOTION":14.98329802,"ECCENTRICITY":0.0002804,"INCLINATION":70.0001,"RA_OF_ASC_NODE":102.0293,"ARG_OF_PERICENTER":272.412,"MEAN_ANOMALY":87.6718,"EPHEMERIS_TYPE":0,"CLASSIFICATION_TYPE":"U","NORAD_CAT_ID":56811,"ELEMENT_SET_NO":999,"REV_AT_EPOCH":12317,"BSTAR":-1.9192e-5,"MEAN_MOTION_DOT":-3.22e-6,"MEAN_MOTION_DDOT":0},{"OBJECT_NAME":"STARLINK-6065","OBJECT_ID":"2023-078AX","EPOCH":"2025-08-16T10:00:01.999584","MEAN_MOTION":14.98337624,"ECCENTRICITY":0.0003099,"INCLINATION":70.0011,"RA_OF_ASC_NODE":121.9096,"ARG_OF_PERICENTER":271.9638,"MEAN_ANOMALY":265.761,"EPHEMERIS_TYPE":0,"CLASSIFICATION_TYPE":"U","NORAD_CAT_ID":56812,"ELEMENT_SET_NO":999,"REV_AT_EPOCH":12269,"BSTAR":-0.0018734,"MEAN_MOTION_DOT":-0.00022379,"MEAN_MOTION_DDOT":0},{"OBJECT_NAME":"STARLINK-6056","OBJECT_ID":"2023-078AY","EPOCH":"2025-08-16T04:42:32.657184","MEAN_MOTION":14.9833083,"ECCENTRICITY":0.0003059,"INCLINATION":70.0005,"RA_OF_ASC_NODE":142.4052,"ARG_OF_PERICENTER":268.4486,"MEAN_ANOMALY":91.6322,"EPHEMERIS_TYPE":0,"CLASSIFICATION_TYPE":"U","NORAD_CAT_ID":56813,"ELEMENT_SET_NO":999,"REV_AT_EPOCH":12216,"BSTAR":-1.4652e-5,"MEAN_MOTION_DOT":-2.68e-6,"MEAN_MOTION_DDOT":0},{"OBJECT_NAME":"STARLINK-6059","OBJECT_ID":"2023-078AZ","EPOCH":"2025-08-16T04:54:20.377728","MEAN_MOTION":14.9832664,"ECCENTRICITY":0.0002858,"INCLINATION":70.0003,"RA_OF_ASC_NODE":142.4327,"ARG_OF_PERICENTER":271.3831,"MEAN_ANOMALY":88.7,"EPHEMERIS_TYPE":0,"CLASSIFICATION_TYPE":"U","NORAD_CAT_ID":56814,"ELEMENT_SET_NO":999,"REV_AT_EPOCH":12216,"BSTAR":0.00016793,"MEAN_MOTION_DOT":1.911e-5,"MEAN_MOTION_DDOT":0},{"OBJECT_NAME":"STARLINK-6067","OBJECT_ID":"2023-078BB","EPOCH":"2025-08-16T02:29:47.406624","MEAN_MOTION":14.98327333,"ECCENTRICITY":0.000266,"INCLINATION":70.0002,"RA_OF_ASC_NODE":122.6166,"ARG_OF_PERICENTER":265.3308,"MEAN_ANOMALY":94.7547,"EPHEMERIS_TYPE":0,"CLASSIFICATION_TYPE":"U","NORAD_CAT_ID":56816,"ELEMENT_SET_NO":999,"REV_AT_EPOCH":12264,"BSTAR":-3.1323e-5,"MEAN_MOTION_DOT":-4.67e-6,"MEAN_MOTION_DDOT":0},{"OBJECT_NAME":"STARLINK-5982","OBJECT_ID":"2023-078BC","EPOCH":"2025-08-16T03:30:12.717792","MEAN_MOTION":14.98332998,"ECCENTRICITY":0.0002847,"INCLINATION":70.001,"RA_OF_ASC_NODE":142.6304,"ARG_OF_PERICENTER":270.2904,"MEAN_ANOMALY":89.7928,"EPHEMERIS_TYPE":0,"CLASSIFICATION_TYPE":"U","NORAD_CAT_ID":56817,"ELEMENT_SET_NO":999,"REV_AT_EPOCH":12215,"BSTAR":-3.0056e-6,"MEAN_MOTION_DOT":-1.29e-6,"MEAN_MOTION_DDOT":0},{"OBJECT_NAME":"STARLINK-6028","OBJECT_ID":"2023-078BD","EPOCH":"2025-08-16T04:42:18.465120","MEAN_MOTION":14.98331164,"ECCENTRICITY":0.0002868,"INCLINATION":70.0005,"RA_OF_ASC_NODE":142.4039,"ARG_OF_PERICENTER":271.8522,"MEAN_ANOMALY":88.2308,"EPHEMERIS_TYPE":0,"CLASSIFICATION_TYPE":"U","NORAD_CAT_ID":56818,"ELEMENT_SET_NO":999,"REV_AT_EPOCH":12216,"BSTAR":-2.3509e-5,"MEAN_MOTION_DOT":-3.73e-6,"MEAN_MOTION_DDOT":0},{"OBJECT_NAME":"STARLINK-30119","OBJECT_ID":"2023-079A","EPOCH":"2025-08-15T11:33:12.494304","MEAN_MOTION":15.02532573,"ECCENTRICITY":0.0001045,"INCLINATION":43.003,"RA_OF_ASC_NODE":147.9949,"ARG_OF_PERICENTER":268.0441,"MEAN_ANOMALY":92.0282,"EPHEMERIS_TYPE":0,"CLASSIFICATION_TYPE":"U","NORAD_CAT_ID":56823,"ELEMENT_SET_NO":999,"REV_AT_EPOCH":12153,"BSTAR":3.0576e-6,"MEAN_MOTION_DOT":-1.62e-6,"MEAN_MOTION_DDOT":0},{"OBJECT_NAME":"STARLINK-30120","OBJECT_ID":"2023-079B","EPOCH":"2025-08-16T01:49:56.617536","MEAN_MOTION":15.02545805,"ECCENTRICITY":9.57e-5,"INCLINATION":43.0051,"RA_OF_ASC_NODE":144.7204,"ARG_OF_PERICENTER":268.6274,"MEAN_ANOMALY":91.4459,"EPHEMERIS_TYPE":0,"CLASSIFICATION_TYPE":"U","NORAD_CAT_ID":56824,"ELEMENT_SET_NO":999,"REV_AT_EPOCH":12163,"BSTAR":-7.807e-5,"MEAN_MOTION_DOT":-1.258e-5,"MEAN_MOTION_DDOT":0}]
